SHIYAN-1 (SY-1)         
1 28220U 04012A   26068.73650539  .00016393  00000+0  54854-3 0  9991
2 28220  97.8764 140.5238 0005873  23.6952 336.4557 15.31043463195862
STARLINK-31470          
1 59569U 24076F   26068.24231459 -.00003688  00000+0 -12462-3 0  9999
2 59569  43.0015   8.1268 0001517 254.4295 105.6390 15.27568468106383
